KRNT 151853Z 15006KT 2 1/2SM -RA BR FEW010 BKN037 OVC047 08/06 A2999 RMK AO2 RAB1754 SLP162 P0000 T00780061